0 COSMOS 2251 DEB
1 34117U 93036KN  13281.84754472  .00000743  00000-0  29926-3 0  8065
2 34117 074.0448 180.0696 0068440 262.7772 165.5276 14.28519751244623
0 COSMOS 2251 DEB
1 34117U 93036KN  13283.95590878  .00000922  00000-0  36914-3 0  8072
2 34117 074.0446 176.2479 0068377 258.5050 208.1066 14.28524879244929
0 COSMOS 2251 DEB
1 34117U 93036KN  13286.04879751  .00000814  00000-0  32710-3 0  8086
2 34117 074.0444 172.4542 0068234 254.2480 171.1457 14.28528543245227
0 COSMOS 2251 DEB
1 34117U 93036KN  13288.08965767  .00001253  00000-0  49769-3 0  8096
2 34117 074.0441 168.7548 0068154 250.0926 226.6493 14.28533929245510
0 COSMOS 2251 DEB
1 34117U 93036KN  13290.66985883  .00001031  00000-0  41147-3 0  8102
2 34117 074.0436 164.0776 0068017 244.8091 175.9003 14.28539149245881
0 COSMOS 2251 DEB
1 34117U 93036KN  13293.06106900  .00001067  00000-0  42516-3 0  8115
2 34117 074.0434 159.7429 0067936 239.9194 233.2625 14.28543420246227
0 COSMOS 2251 DEB
1 34117U 93036KN  13295.10191949  .00001161  00000-0  46194-3 0  8121
2 34117 074.0434 156.0431 0067846 235.7340 288.8640 14.28547312246516
